SL-16 R/B               
1 28353U 04021B   25150.60148257 -.00000083  00000+0 -18620-4 0  9997
2 28353  71.0004 106.5511 0002827 123.4030 236.7363 14.14552059 82800
CZ-4B R/B               
1 28415U 04035C   25150.55575217  .00006567  00000+0  26991-3 0  9995
2 28415  97.3797 183.7423 0034327 247.6896 112.0700 15.23973478136722
CZ-2C R/B               
1 28480U 04046B   25150.61262637  .00000159  00000+0  74993-4 0  9992
2 28480  98.1941  78.3020 0138423 272.0419  86.4916 14.26829123 68132
ARIANE 5 R/B            
1 28499U 04049H   25150.40119396  .00001297  00000+0  15149-3 0  9996
2 28499  98.2322 303.9965 0085270 188.0972 171.8871 14.84476182103756
CZ-2D R/B               
1 28738U 05024B   25150.58412094  .00017448  00000+0  39455-3 0  9997
2 28738  97.3676 154.4653 0005576   2.3605 357.7668 15.43208796 95927
ALOS (DAICHI)           
1 28931U 06002A   25150.46141176  .00001642  00000+0  29056-3 0  9991
2 28931  98.0836 103.8203 0002283  92.8792 267.2674 14.68677686 31892
H-2A R/B                
1 28932U 06002B   25150.60726361  .00008970  00000+0  52217-3 0  9999
2 28932  98.2111 270.3654 0060029 120.5608 240.1562 15.10753635 51624
RESURS-DK 1             
1 29228U 06021A   25150.60327118  .00002515  00000+0  15688-3 0  9996
2 29228  69.9339 248.1430 0006277 221.7017 138.3670 15.10914837 44744
GENESIS 1               
1 29252U 06029A   25150.42609871  .00256872  31905-4  72784-3 0  9990
2 29252  64.4978  41.2297 0026192 280.6009  79.2201 15.92549864 44642
CZ-4B R/B               
1 29507U 06046C   25150.55453369  .00004311  00000+0  23965-3 0  9998
2 29507  97.5954 191.2181 0036340 163.4704 196.7722 15.13662006 17178
CZ-2C R/B               
1 31114U 07010B   25150.57297289  .00000100  00000+0  64725-4 0  9998
2 31114  98.3775 273.3388 0059766  38.5386 322.0036 14.20124311939535
COSMO-SKYMED 1          
1 31598U 07023A   25150.55127266  .00000688  00000+0  76462-4 0  9995
2 31598  97.8872 335.0041 0001287  94.5586 265.5779 14.90395251972592
GENESIS 2               
1 31789U 07028A   25150.57070985  .00098147  00000+0  60307-3 0  9996
2 31789  64.4759  93.5008 0021106 309.5561  50.3725 15.76408307991337
COSMOS 2428             
1 31792U 07029A   25150.48657464  .00000193  00000+0  12965-3 0  9995
2 31792  70.9363  77.8323 0005595 282.1376  77.9118 14.12849737924098
SL-16 R/B               
1 31793U 07029B   25150.49457186  .00000342  00000+0  20200-3 0  9993
2 31793  70.9770  47.6542 0001686 274.6224 259.2156 14.14784659925310
KORONAS-FOTON           
1 33504U 09003A   25150.58103861  .00010452  00000+0  29143-3 0  9995
2 33504  82.4327 208.4423 0013825  93.5391 266.7434 15.36517539902182
CZ-2C R/B               
1 37731U 11030B   25150.46489838  .00001106  00000+0  14913-3 0  9997
2 37731  97.8140 109.4166 0053221 190.3302 282.8706 14.80174782748183
H-2A R/B                
1 38341U 12025E   25150.54535201  .00001949  00000+0  19036-3 0  9991
2 38341  98.4372  91.2850 0046971 156.2004 204.1399 14.92932536705941
SHIJIAN-16 (SJ-16)      
1 39358U 13057A   25150.61561480  .00000983  00000+0  10129-3 0  9993
2 39358  74.9723   0.5049 0016288  80.8866 279.4163 14.91331810629292
SL-4 R/B                
1 39679U 14021B   25150.58835361  .00013487  00000+0  36959-3 0  9991
2 39679  51.6098 269.2603 0113484 157.3902 203.2135 15.31342863612798
ALOS-2                  
1 39766U 14029A   25150.40485986  .00001832  00000+0  25212-3 0  9992
2 39766  97.9209 248.0627 0001630  97.4826 262.6571 14.79482629594980
YAOGAN-29               
1 41038U 15069A   25150.57630639  .00000480  00000+0  66389-4 0  9996
2 41038  98.0349 172.9126 0001993 139.7296 220.4065 14.82624820513924
ASTRO-H (HITOMI)        
1 41337U 16012A   25149.97685673  .00003168  00000+0  19514-3 0  9990
2 41337  31.0012  24.2653 0010118   2.9422 357.1274 15.07963952509346
HXMT (HUIYAN)           
1 42758U 17034A   25150.48890934  .00003546  00000+0  20311-3 0  9996
2 42758  43.0133 146.2153 0036331 249.0540 110.6416 15.13699786439576
CZ-2C R/B               
1 43521U 18054D   25150.39968508  .00033447  00000+0  53520-3 0  9992
2 43521  35.1398  43.7027 0032522  81.9534 278.4881 15.51492029384385
SAOCOM 1A               
1 43641U 18076A   25150.55376177  .00000442  00000+0  62098-4 0  9992
2 43641  97.8888 337.7898 0001488  89.3890 270.7493 14.82160210359421
H-2A R/B                
1 43682U 18084L   25150.37637437  .00015549  00000+0  52740-3 0  9991
2 43682  98.8750 305.2338 0031653 277.3759  82.3880 15.30175467362317
SAOCOM 1B               
1 46265U 20059A   25150.58501591  .00000427  00000+0  60184-4 0  9991
2 46265  97.8887 336.9236 0001439  89.2816 270.8562 14.82160087256814
CSS (TIANHE)            
1 48274U 21035A   25150.37878046  .00014157  00000+0  18624-3 0  9993
2 48274  41.4636 128.6735 0006861 325.8248  34.2148 15.58169139233374
COSMOS 2550             
1 48865U 21056A   25150.58167842  .00005858  00000+0  18365-3 0  9990
2 48865  67.1410 177.3564 0008407 268.9958  91.0233 15.33844858220057
CZ-2C R/B               
1 52794U 22058K   25150.46457301  .00024682  00000+0  59255-3 0  9997
2 52794  50.1937 316.3657 0057004 103.7423 256.9895 15.39483519166321
GSLV R/B                
1 54149U 22138AN  25150.57915816  .00003452  00000+0  31347-3 0  9998
2 54149  87.3789 261.1584 0024909  98.8929 261.5123 14.94748227141614
XRISM                   
1 57800U 23137A   25150.57288881  .00005368  00000+0  33485-3 0  9993
2 57800  31.0026 309.3960 0008121  75.3624 284.7913 15.07966742 94973
ACS3                    
1 59588U 24077B   25150.61398258  .00006283  00000+0  62138-2 0  9990
2 59588  97.4820 148.6713 0055015  84.3303 276.4124 13.78009859 55077
